{
  "type": "FeatureCollection",
  "features": [
    {
      "type": "Feature",
      "properties": {
        "norad_id": 66962,
        "name": "STARLINK-35874",
        "group": "last-30-days",
        "lat": -42.93100834094974,
        "lon": -10.965988659063878,
        "alt_km": 406.52705518235416,
        "timestamp": "2025-12-27T19:21:57.545687+00:00",
        "meta_object_name": "STARLINK-35874",
        "meta_object_id": "2025-288D",
        "meta_epoch": "2025-12-27T12:00:02.000160",
        "meta_mean_motion": 15.55698247,
        "meta_eccentricity": 0.0001389,
        "meta_inclination": 42.9996,
        "meta_ra_of_asc_node": 77.5186,
        "meta_arg_of_pericenter": 275.0324,
        "meta_mean_anomaly": 77.3471,
        "meta_ephemeris_type": 0,
        "meta_classification_type": "U",
        "meta_norad_cat_id": 66962,
        "meta_element_set_no": 999,
        "meta_rev_at_epoch": 420,
        "meta_bstar": -0.032634,
        "meta_mean_motion_dot": -0.02056293,
        "meta_mean_motion_ddot": 0,
        "tle_line1": "1 66962U 25288D   25361.50002315 -.02056293  00000+0 -32634-1 0  9994",
        "tle_line2": "2 66962  42.9996  77.5186 0001389 275.0324  77.3471 15.55698247  4205"
      },
      "geometry": {
        "type": "Point",
        "coordinates": [
          -10.965988659063878,
          -42.93100834094974
        ]
      }
    },
    {
      "type": "Feature",
      "properties": {
        "norad_id": 66963,
        "name": "STARLINK-36133",
        "group": "last-30-days",
        "lat": -42.82549757533698,
        "lon": -8.359620398436741,
        "alt_km": 406.5101755083888,
        "timestamp": "2025-12-27T19:21:57.545696+00:00",
        "meta_object_name": "STARLINK-36133",
        "meta_object_id": "2025-288E",
        "meta_epoch": "2025-12-27T12:00:02.000160",
        "meta_mean_motion": 15.55697765,
        "meta_eccentricity": 0.0001407,
        "meta_inclination": 42.9995,
        "meta_ra_of_asc_node": 77.5141,
        "meta_arg_of_pericenter": 273.6697,
        "meta_mean_anomaly": 80.6289,
        "meta_ephemeris_type": 0,
        "meta_classification_type": "U",
        "meta_norad_cat_id": 66963,
        "meta_element_set_no": 999,
        "meta_rev_at_epoch": 420,
        "meta_bstar": -0.032658,
        "meta_mean_motion_dot": -0.0205765,
        "meta_mean_motion_ddot": 0,
        "tle_line1": "1 66963U 25288E   25361.50002315 -.02057650  00000+0 -32658-1 0  9999",
        "tle_line2": "2 66963  42.9995  77.5141 0001407 273.6697  80.6289 15.55697765  4202"
      },
      "geometry": {
        "type": "Point",
        "coordinates": [
          -8.359620398436741,
          -42.82549757533698
        ]
      }
    },
    {
      "type": "Feature",
      "properties": {
        "norad_id": 66964,
        "name": "STARLINK-36104",
        "group": "last-30-days",
        "lat": -42.66116851776156,
        "lon": -5.768857211061411,
        "alt_km": 406.50407185095173,
        "timestamp": "2025-12-27T19:21:57.545708+00:00",
        "meta_object_name": "STARLINK-36104",
        "meta_object_id": "2025-288F",
        "meta_epoch": "2025-12-27T12:00:02.000160",
        "meta_mean_motion": 15.55699442,
        "meta_eccentricity": 0.0001408,
        "meta_inclination": 42.9994,
        "meta_ra_of_asc_node": 77.5088,
        "meta_arg_of_pericenter": 275.8777,
        "meta_mean_anomaly": 80.3369,
        "meta_ephemeris_type": 0,
        "meta_classification_type": "U",
        "meta_norad_cat_id": 66964,
        "meta_element_set_no": 999,
        "meta_rev_at_epoch": 420,
        "meta_bstar": -0.032702,
        "meta_mean_motion_dot": -0.0206019,
        "meta_mean_motion_ddot": 0,
        "tle_line1": "1 66964U 25288F   25361.50002315 -.02060190  00000+0 -32702-1 0  9993",
        "tle_line2": "2 66964  42.9994  77.5088 0001408 275.8777  80.3369 15.55699442  4206"
      },
      "geometry": {
        "type": "Point",
        "coordinates": [
          -5.768857211061411,
          -42.66116851776156
        ]
      }
    },
    {
      "type": "Feature",
      "properties": {
        "norad_id": 66965,
        "name": "STARLINK-36067",
        "group": "last-30-days",
        "lat": -42.439293993993296,
        "lon": -3.1971389560175902,
        "alt_km": 406.5244076626932,
        "timestamp": "2025-12-27T19:21:57.545717+00:00",
        "meta_object_name": "STARLINK-36067",
        "meta_object_id": "2025-288G",
        "meta_epoch": "2025-12-27T12:00:02.000160",
        "meta_mean_motion": 15.55697057,
        "meta_eccentricity": 0.0001365,
        "meta_inclination": 42.9996,
        "meta_ra_of_asc_node": 77.5049,
        "meta_arg_of_pericenter": 278.29,
        "meta_mean_anomaly": 79.8392,
        "meta_ephemeris_type": 0,
        "meta_classification_type": "U",
        "meta_norad_cat_id": 66965,
        "meta_element_set_no": 999,
        "meta_rev_at_epoch": 420,
        "meta_bstar": -0.032635,
        "meta_mean_motion_dot": -0.02056268,
        "meta_mean_motion_ddot": 0,
        "tle_line1": "1 66965U 25288G   25361.50002315 -.02056268  00000+0 -32635-1 0  9990",
        "tle_line2": "2 66965  42.9996  77.5049 0001365 278.2900  79.8392 15.55697057  4202"
      },
      "geometry": {
        "type": "Point",
        "coordinates": [
          -3.1971389560175902,
          -42.439293993993296
        ]
      }
    },
    {
      "type": "Feature",
      "properties": {
        "norad_id": 66966,
        "name": "STARLINK-36139",
        "group": "last-30-days",
        "lat": -42.159218497323174,
        "lon": -0.6390112993200037,
        "alt_km": 406.4294738882754,
        "timestamp": "2025-12-27T19:21:57.545726+00:00",
        "meta_object_name": "STARLINK-36139",
        "meta_object_id": "2025-288H",
        "meta_epoch": "2025-12-27T12:00:02.000160",
        "meta_mean_motion": 15.55699991,
        "meta_eccentricity": 0.0001483,
        "meta_inclination": 42.9998,
        "meta_ra_of_asc_node": 77.4998,
        "meta_arg_of_pericenter": 278.0042,
        "meta_mean_anomaly": 82.042,
        "meta_ephemeris_type": 0,
        "meta_classification_type": "U",
        "meta_norad_cat_id": 66966,
        "meta_element_set_no": 999,
        "meta_rev_at_epoch": 420,
        "meta_bstar": -0.032698,
        "meta_mean_motion_dot": -0.02060052,
        "meta_mean_motion_ddot": 0,
        "tle_line1": "1 66966U 25288H   25361.50002315 -.02060052  00000+0 -32698-1 0  9996",
        "tle_line2": "2 66966  42.9998  77.4998 0001483 278.0042  82.0420 15.55699991  4200"
      },
      "geometry": {
        "type": "Point",
        "coordinates": [
          -0.6390112993200037,
          -42.159218497323174
        ]
      }
    },
    {
      "type": "Feature",
      "properties": {
        "norad_id": 66967,
        "name": "STARLINK-36136",
        "group": "last-30-days",
        "lat": -41.82282125063463,
        "lon": 1.8915285592093851,
        "alt_km": 406.5026186745945,
        "timestamp": "2025-12-27T19:21:57.545735+00:00",
        "meta_object_name": "STARLINK-36136",
        "meta_object_id": "2025-288J",
        "meta_epoch": "2025-12-27T12:00:02.000160",
        "meta_mean_motion": 15.55697648,
        "meta_eccentricity": 0.0001369,
        "meta_inclination": 42.9998,
        "meta_ra_of_asc_node": 77.4947,
        "meta_arg_of_pericenter": 280.099,
        "meta_mean_anomaly": 81.8675,
        "meta_ephemeris_type": 0,
        "meta_classification_type": "U",
        "meta_norad_cat_id": 66967,
        "meta_element_set_no": 999,
        "meta_rev_at_epoch": 420,
        "meta_bstar": -0.032711,
        "meta_mean_motion_dot": -0.02060565,
        "meta_mean_motion_ddot": 0,
        "tle_line1": "1 66967U 25288J   25361.50002315 -.02060565  00000+0 -32711-1 0  9992",
        "tle_line2": "2 66967  42.9998  77.4947 0001369 280.0990  81.8675 15.55697648  4209"
      },
      "geometry": {
        "type": "Point",
        "coordinates": [
          1.8915285592093851,
          -41.82282125063463
        ]
      }
    },
    {
      "type": "Feature",
      "properties": {
        "norad_id": 66968,
        "name": "STARLINK-36152",
        "group": "last-30-days",
        "lat": -41.43078264454474,
        "lon": 4.395938785881337,
        "alt_km": 406.51494199091576,
        "timestamp": "2025-12-27T19:21:57.545744+00:00",
        "meta_object_name": "STARLINK-36152",
        "meta_object_id": "2025-288K",
        "meta_epoch": "2025-12-27T12:00:02.000160",
        "meta_mean_motion": 15.55699722,
        "meta_eccentricity": 0.0001317,
        "meta_inclination": 42.9998,
        "meta_ra_of_asc_node": 77.4892,
        "meta_arg_of_pericenter": 278.1861,
        "meta_mean_anomaly": 85.696,
        "meta_ephemeris_type": 0,
        "meta_classification_type": "U",
        "meta_norad_cat_id": 66968,
        "meta_element_set_no": 999,
        "meta_rev_at_epoch": 420,
        "meta_bstar": -0.032692,
        "meta_mean_motion_dot": -0.02059611,
        "meta_mean_motion_ddot": 0,
        "tle_line1": "1 66968U 25288K   25361.50002315 -.02059611  00000+0 -32692-1 0  9991",
        "tle_line2": "2 66968  42.9998  77.4892 0001317 278.1861  85.6960 15.55699722  4201"
      },
      "geometry": {
        "type": "Point",
        "coordinates": [
          4.395938785881337,
          -41.43078264454474
        ]
      }
    }
  ]
}